{
  "type": "FeatureCollection",
  "features": [
    {
      "type": "Feature",
      "properties": {
        "norad_id": 32331,
        "name": "FENGYUN 1C DEB",
        "group": "fengyun-1c-debris",
        "lat": -53.63417711859531,
        "lon": 114.37296231898127,
        "alt_km": 662.4863542719231,
        "timestamp": "2025-12-06T07:31:40.523120+00:00",
        "meta_object_name": "FENGYUN 1C DEB",
        "meta_object_id": "1999-025CXY",
        "meta_epoch": "2025-11-11T08:35:02.141088",
        "meta_mean_motion": 14.68670701,
        "meta_eccentricity": 0.0013407,
        "meta_inclination": 99.1837,
        "meta_ra_of_asc_node": 279.0061,
        "meta_arg_of_pericenter": 226.0291,
        "meta_mean_anomaly": 133.9806,
        "meta_ephemeris_type": 0,
        "meta_classification_type": "U",
        "meta_norad_cat_id": 32331,
        "meta_element_set_no": 999,
        "meta_rev_at_epoch": 60157,
        "meta_bstar": 0.0092524,
        "meta_mean_motion_dot": 0.0005428,
        "meta_mean_motion_ddot": 0,
        "tle_line1": "1 32331U 99025CXY 25315.35766367  .00054280  00000+0  92524-2 0  9998",
        "tle_line2": "2 32331  99.1837 279.0061 0013407 226.0291 133.9806 14.68670701601572"
      },
      "geometry": {
        "type": "Point",
        "coordinates": [
          114.37296231898127,
          -53.63417711859531
        ]
      }
    },
    {
      "type": "Feature",
      "properties": {
        "norad_id": 32332,
        "name": "FENGYUN 1C DEB",
        "group": "fengyun-1c-debris",
        "lat": 26.68935734334393,
        "lon": -140.96658399368408,
        "alt_km": 1110.147525497634,
        "timestamp": "2025-12-06T07:31:40.523130+00:00",
        "meta_object_name": "FENGYUN 1C DEB",
        "meta_object_id": "1999-025CXZ",
        "meta_epoch": "2025-12-04T10:06:09.509760",
        "meta_mean_motion": 13.97065068,
        "meta_eccentricity": 0.0284962,
        "meta_inclination": 99.1336,
        "meta_ra_of_asc_node": 32.5118,
        "meta_arg_of_pericenter": 335.6886,
        "meta_mean_anomaly": 23.1049,
        "meta_ephemeris_type": 0,
        "meta_classification_type": "U",
        "meta_norad_cat_id": 32332,
        "meta_element_set_no": 999,
        "meta_rev_at_epoch": 92920,
        "meta_bstar": 0.0025333,
        "meta_mean_motion_dot": 4.945e-05,
        "meta_mean_motion_ddot": 0,
        "tle_line1": "1 32332U 99025CXZ 25338.42094340  .00004945  00000+0  25333-2 0  9994",
        "tle_line2": "2 32332  99.1336  32.5118 0284962 335.6886  23.1049 13.97065068929202"
      },
      "geometry": {
        "type": "Point",
        "coordinates": [
          -140.96658399368408,
          26.68935734334393
        ]
      }
    },
    {
      "type": "Feature",
      "properties": {
        "norad_id": 32334,
        "name": "FENGYUN 1C DEB",
        "group": "fengyun-1c-debris",
        "lat": -58.82736598550453,
        "lon": -161.00090314114823,
        "alt_km": 870.2694722482174,
        "timestamp": "2025-12-06T07:31:40.523140+00:00",
        "meta_object_name": "FENGYUN 1C DEB",
        "meta_object_id": "1999-025CYB",
        "meta_epoch": "2025-12-02T03:00:46.825344",
        "meta_mean_motion": 14.01624263,
        "meta_eccentricity": 0.00664079,
        "meta_inclination": 99.2542,
        "meta_ra_of_asc_node": 30.3872,
        "meta_arg_of_pericenter": 310.7393,
        "meta_mean_anomaly": 48.8018,
        "meta_ephemeris_type": 0,
        "meta_classification_type": "U",
        "meta_norad_cat_id": 32334,
        "meta_element_set_no": 999,
        "meta_rev_at_epoch": 93791,
        "meta_bstar": 0.00038671814,
        "meta_mean_motion_dot": 5.5e-06,
        "meta_mean_motion_ddot": 0,
        "tle_line1": "1 32334U 99025CYB 25336.12554196  .00000550  00000+0  38672-3 0  9990",
        "tle_line2": "2 32334  99.2542  30.3872 0066407 310.7393  48.8018 14.01624263937917"
      },
      "geometry": {
        "type": "Point",
        "coordinates": [
          -161.00090314114823,
          -58.82736598550453
        ]
      }
    },
    {
      "type": "Feature",
      "properties": {
        "norad_id": 32340,
        "name": "FENGYUN 1C DEB",
        "group": "fengyun-1c-debris",
        "lat": -80.99228639149334,
        "lon": 79.35854593833234,
        "alt_km": 637.7073589317279,
        "timestamp": "2025-12-06T07:31:40.523171+00:00",
        "meta_object_name": "FENGYUN 1C DEB",
        "meta_object_id": "1999-025CYH",
        "meta_epoch": "2025-12-03T11:31:05.163168",
        "meta_mean_motion": 14.74095933,
        "meta_eccentricity": 0.00348923,
        "meta_inclination": 98.9809,
        "meta_ra_of_asc_node": 342.2859,
        "meta_arg_of_pericenter": 323.7129,
        "meta_mean_anomaly": 36.171,
        "meta_ephemeris_type": 0,
        "meta_classification_type": "U",
        "meta_norad_cat_id": 32340,
        "meta_element_set_no": 999,
        "meta_rev_at_epoch": 97060,
        "meta_bstar": 0.0034692662,
        "meta_mean_motion_dot": 0.00023088,
        "meta_mean_motion_ddot": 0,
        "tle_line1": "1 32340U 99025CYH 25337.47992087  .00023088  00000+0  34693-2 0  9990",
        "tle_line2": "2 32340  98.9809 342.2859 0034892 323.7129  36.1710 14.74095933970608"
      },
      "geometry": {
        "type": "Point",
        "coordinates": [
          79.35854593833234,
          -80.99228639149334
        ]
      }
    },
    {
      "type": "Feature",
      "properties": {
        "norad_id": 32342,
        "name": "FENGYUN 1C DEB",
        "group": "fengyun-1c-debris",
        "lat": -34.07386390069254,
        "lon": -4.956837128960301,
        "alt_km": 849.8110791493,
        "timestamp": "2025-12-06T07:31:40.523182+00:00",
        "meta_object_name": "FENGYUN 1C DEB",
        "meta_object_id": "1999-025CYK",
        "meta_epoch": "2025-12-04T06:43:58.281024",
        "meta_mean_motion": 14.13393554,
        "meta_eccentricity": 0.0007927,
        "meta_inclination": 98.6706,
        "meta_ra_of_asc_node": 347.1488,
        "meta_arg_of_pericenter": 15.5607,
        "meta_mean_anomaly": 50.8805,
        "meta_ephemeris_type": 0,
        "meta_classification_type": "U",
        "meta_norad_cat_id": 32342,
        "meta_element_set_no": 999,
        "meta_rev_at_epoch": 93598,
        "meta_bstar": 0.00018731,
        "meta_mean_motion_dot": 3.09e-06,
        "meta_mean_motion_ddot": 0,
        "tle_line1": "1 32342U 99025CYK 25338.28053566  .00000309  00000+0  18731-3 0  9999",
        "tle_line2": "2 32342  98.6706 347.1488 0007927  15.5607  50.8805 14.13393554935984"
      },
      "geometry": {
        "type": "Point",
        "coordinates": [
          -4.956837128960301,
          -34.07386390069254
        ]
      }
    },
    {
      "type": "Feature",
      "properties": {
        "norad_id": 32343,
        "name": "FENGYUN 1C DEB",
        "group": "fengyun-1c-debris",
        "lat": -8.216303997576086,
        "lon": -31.490936408135333,
        "alt_km": 927.5824331128697,
        "timestamp": "2025-12-06T07:31:40.523192+00:00",
        "meta_object_name": "FENGYUN 1C DEB",
        "meta_object_id": "1999-025CYL",
        "meta_epoch": "2025-11-23T04:58:45.910848",
        "meta_mean_motion": 14.1981282,
        "meta_eccentricity": 0.01511129,
        "meta_inclination": 98.6065,
        "meta_ra_of_asc_node": 314.5087,
        "meta_arg_of_pericenter": 183.896,
        "meta_mean_anomaly": 176.1052,
        "meta_ephemeris_type": 0,
        "meta_classification_type": "U",
        "meta_norad_cat_id": 32343,
        "meta_element_set_no": 999,
        "meta_rev_at_epoch": 64436,
        "meta_bstar": 0.00029765257,
        "meta_mean_motion_dot": 6.65e-06,
        "meta_mean_motion_ddot": 0,
        "tle_line1": "1 32343U 99025CYL 25327.20747582  .00000665  00000+0  29765-3 0  9992",
        "tle_line2": "2 32343  98.6065 314.5087 0151112 183.8960 176.1052 14.19812820644366"
      },
      "geometry": {
        "type": "Point",
        "coordinates": [
          -31.490936408135333,
          -8.216303997576086
        ]
      }
    },
    {
      "type": "Feature",
      "properties": {
        "norad_id": 32350,
        "name": "FENGYUN 1C DEB",
        "group": "fengyun-1c-debris",
        "lat": -49.7088373396259,
        "lon": -164.65422368488095,
        "alt_km": 713.4985414530483,
        "timestamp": "2025-12-06T07:31:40.523203+00:00",
        "meta_object_name": "FENGYUN 1C DEB",
        "meta_object_id": "1999-025CYT",
        "meta_epoch": "2025-12-03T22:14:07.061568",
        "meta_mean_motion": 14.52443198,
        "meta_eccentricity": 0.0267337,
        "meta_inclination": 98.2299,
        "meta_ra_of_asc_node": 22.831,
        "meta_arg_of_pericenter": 325.9182,
        "meta_mean_anomaly": 32.5092,
        "meta_ephemeris_type": 0,
        "meta_classification_type": "U",
        "meta_norad_cat_id": 32350,
        "meta_element_set_no": 999,
        "meta_rev_at_epoch": 97399,
        "meta_bstar": 0.0013586,
        "meta_mean_motion_dot": 8.828e-05,
        "meta_mean_motion_ddot": 0,
        "tle_line1": "1 32350U 99025CYT 25337.92647062  .00008828  00000+0  13586-2 0  9994",
        "tle_line2": "2 32350  98.2299  22.8310 0267337 325.9182  32.5092 14.52443198973997"
      },
      "geometry": {
        "type": "Point",
        "coordinates": [
          -164.65422368488095,
          -49.7088373396259
        ]
      }
    }
  ]
}